ONEWEB-0336             
1 49202U 21083S   26201.54827385  .00000190  00000+0  48460-3 0  9998
2 49202  87.8979 313.5886 0001781  92.6541 267.4792 13.13468986235292
ONEWEB-0337             
1 49203U 21083T   26201.32976688 -.00000083  00000+0 -26200-3 0  9997
2 49203  87.8978 313.6374 0002009  93.5147 266.6212 13.13469466235260
ONEWEB-0338             
1 49204U 21083U   26201.22257944  .00000069  00000+0  13789-3 0  9994
2 49204  87.9175 267.8636 0002189 106.2005 253.9370 13.20770764241171
ONEWEB-0339             
1 49205U 21083V   26201.33836114 -.00000287  00000+0 -82159-3 0  9990
2 49205  87.8981 313.6292 0002172 104.7959 255.3411 13.13469382235243
ONEWEB-0340             
1 49206U 21083W   26201.59505496  .00000097  00000+0  21283-3 0  9993
2 49206  87.9205 328.8141 0001853  94.8992 265.2351 13.18685642234376
ONEWEB-0341             
1 49207U 21083X   26201.60179461  .00000064  00000+0  12899-3 0  9992
2 49207  87.9197 328.8138 0002204  88.6249 271.5136 13.18684712234390
ONEWEB-0342             
1 49208U 21083Y   26201.22930000  .00000103  00000+0  22071-3 0  9992
2 49208  87.9182 267.8526 0002174 101.6388 258.4989 13.20774692241145
ONEWEB-0343             
1 49209U 21083Z   26201.38259546  .00000117  00000+0  26399-3 0  9991
2 49209  87.9196 328.8562 0002284 104.1885 255.9501 13.18687974234418
ONEWEB-0344             
1 49210U 21083AA  26201.33327194 -.00000260  00000+0 -74704-3 0  9997
2 49210  87.8980 313.6427 0002168  90.1951 269.9427 13.13469132235244
ONEWEB-0345             
1 49211U 21083AB  26201.32481743  .00000022  00000+0  24049-4 0  9990
2 49211  87.8990 313.6300 0002174  93.8816 266.2562 13.13469595235257
ONEWEB-0346             
1 49212U 21083AC  26201.37922446 -.00000146  00000+0 -40402-3 0  9995
2 49212  87.9194 328.8558 0001378  84.1907 275.9382 13.18685952234356
ONEWEB-0348             
1 49213U 21083AD  26201.44648620 -.00000028  00000+0 -10051-3 0  9999
2 49213  87.9179 267.8136 0001983  82.9460 277.1899 13.20772088241205
ONEWEB-0350             
1 49214U 21083AE  26201.57209352 -.00000290  00000+0 -82961-3 0  9999
2 49214  87.8984 313.5850 0001862 132.9134 227.2152 13.13471579235317
ONEWEB-0351             
1 49215U 21083AF  26201.21234554  .00000105  00000+0  22578-3 0  9994
2 49215  87.9179 267.8592 0002707  99.9519 260.1920 13.20771281241134
ONEWEB-0352             
1 49216U 21083AG  26201.31466475  .00000304  00000+0  79735-3 0  9993
2 49216  87.8983 313.6407 0002330 105.2122 254.9265 13.13468924235376
ONEWEB-0354             
1 49217U 21083AH  26201.23941857 -.00000484  00000+0 -12215-2 0  9997
2 49217  87.9197 267.8561 0002169  90.4578 269.6804 13.20773695241175
ONEWEB-0355             
1 49218U 21083AJ  26201.34426450 -.00000313  00000+0 -89239-3 0  9999
2 49218  87.8980 313.6355 0002163  99.4074 260.7299 13.13468410235250
ONEWEB-0357             
1 49219U 21083AK  26201.23604707 -.00000007  00000+0 -48372-4 0  9995
2 49219  87.9184 267.8472 0002195  99.8014 260.3368 13.20771003241175
ONEWEB-0332             
1 49279U 21090A   26201.48210411 -.00000159  00000+0 -46420-3 0  9990
2 49279  87.8963 283.0753 0002048 105.5111 254.6245 13.14503501231951
ONEWEB-0347             
1 49280U 21090B   26201.22594998  .00000083  00000+0  17301-3 0  9999
2 49280  87.9178 267.8569 0002057 105.4116 254.7244 13.20770228235404
ONEWEB-0349             
1 49281U 21090C   26201.40944283  .00000056  00000+0  10536-3 0  9999
2 49281  87.9181 267.8212 0002049  97.6567 262.4799 13.20771691234211
ONEWEB-0353             
1 49282U 21090D   26201.24582733 -.00000027  00000+0 -10748-3 0  9995
2 49282  87.8966 283.1184 0002035 107.0324 253.1029 13.14502939231921
ONEWEB-0356             
1 49283U 21090E   26201.25625279 -.00000100  00000+0 -27899-3 0  9997
2 49283  87.9178 267.8452 0001210 101.6061 258.5208 13.20771463234194
ONEWEB-0358             
1 49284U 21090F   26201.21667794  .00000142  00000+0  31782-3 0  9992
2 49284  87.9180 267.8606 0001946  95.5297 264.6058 13.20770020234916
ONEWEB-0359             
1 49285U 21090G   26201.20742647  .00000092  00000+0  19533-3 0  9997
2 49285  87.9176 267.8540 0002048  89.6785 270.4583 13.20771163234893
ONEWEB-0360             
1 49286U 21090H   26201.19734046  .00000127  00000+0  28135-3 0  9997
2 49286  87.9173 267.8619 0002184  97.6787 262.4594 13.20772249234204
ONEWEB-0361             
1 49287U 21090J   26201.48182908 -.00000277  00000+0 -71442-3 0  9991
2 49287  87.9180 267.8048 0001957  94.8284 265.3073 13.20771390234690
ONEWEB-0362             
1 49288U 21090K   26201.53660072 -.00001438  00000+0 -36243-2 0  9990
2 49288  87.9187 298.3379 0002381  99.8845 260.2557 13.19731967231315
ONEWEB-0363             
1 49289U 21090L   26201.19396058  .00000096  00000+0  20320-3 0  9990
2 49289  87.9183 267.8624 0001724  96.6779 263.4550 13.20772610234668
ONEWEB-0364             
1 49290U 21090M   26201.45995215  .00000077  00000+0  15670-3 0  9992
2 49290  87.9176 267.8169 0002115  98.5350 261.6023 13.20770825235838
