OBJECT_NAME,OBJECT_ID,EPOCH,MEAN_MOTION,ECCENTRICITY,INCLINATION,RA_OF_ASC_NODE,ARG_OF_PERICENTER,MEAN_ANOMALY,EPHEMERIS_TYPE,CLASSIFICATION_TYPE,NORAD_CAT_ID,ELEMENT_SET_NO,REV_AT_EPOCH,BSTAR,MEAN_MOTION_DOT,MEAN_MOTION_DDOT
ONEWEB-0336,2021-083S,2026-07-20T13:09:30.860640,13.13468986,.00017818,87.8979,313.5886,92.6541,267.4792,0,U,49202,999,23529,.4845976E-3,.19E-5,0
ONEWEB-0337,2021-083T,2026-07-20T07:54:51.858432,13.13469466,.00020094,87.8978,313.6374,93.5147,266.6212,0,U,49203,999,23526,-.26199597E-3,-.83E-6,0
ONEWEB-0338,2021-083U,2026-07-20T05:20:30.863616,13.20770764,.00021896,87.9175,267.8636,106.2005,253.9370,0,U,49204,999,24117,.13788675E-3,.69E-6,0
ONEWEB-0339,2021-083V,2026-07-20T08:07:14.402496,13.13469382,.0002172,87.8981,313.6292,104.7959,255.3411,0,U,49205,999,23524,-.82159221E-3,-.287E-5,0
ONEWEB-0340,2021-083W,2026-07-20T14:16:52.748544,13.18685642,.00018531,87.9205,328.8141,94.8992,265.2351,0,U,49206,999,23437,.21283466E-3,.97E-6,0
ONEWEB-0341,2021-083X,2026-07-20T14:26:35.054304,13.18684712,.00022046,87.9197,328.8138,88.6249,271.5136,0,U,49207,999,23439,.12899347E-3,.64E-6,0
ONEWEB-0342,2021-083Y,2026-07-20T05:30:11.520000,13.20774692,.00021741,87.9182,267.8526,101.6388,258.4989,0,U,49208,999,24114,.22071131E-3,.103E-5,0
ONEWEB-0343,2021-083Z,2026-07-20T09:10:56.247744,13.18687974,.00022841,87.9196,328.8562,104.1885,255.9501,0,U,49209,999,23441,.26398694E-3,.117E-5,0
ONEWEB-0344,2021-083AA,2026-07-20T07:59:54.695616,13.13469132,.0002168,87.8980,313.6427,90.1951,269.9427,0,U,49210,999,23524,-.74703866E-3,-.26E-5,0
ONEWEB-0345,2021-083AB,2026-07-20T07:47:44.225952,13.13469595,.00021745,87.8990,313.6300,93.8816,266.2562,0,U,49211,999,23525,.24049031E-4,.22E-6,0
ONEWEB-0346,2021-083AC,2026-07-20T09:06:04.993344,13.18685952,.00013789,87.9194,328.8558,84.1907,275.9382,0,U,49212,999,23435,-.40401946E-3,-.146E-5,0
ONEWEB-0348,2021-083AD,2026-07-20T10:42:56.407680,13.20772088,.00019832,87.9179,267.8136,82.9460,277.1899,0,U,49213,999,24120,-.10050888E-3,-.28E-6,0
ONEWEB-0350,2021-083AE,2026-07-20T13:43:48.880128,13.13471579,.00018628,87.8984,313.5850,132.9134,227.2152,0,U,49214,999,23531,-.82961288E-3,-.29E-5,0
ONEWEB-0351,2021-083AF,2026-07-20T05:05:46.654656,13.20771281,.00027077,87.9179,267.8592,99.9519,260.1920,0,U,49215,999,24113,.22578197E-3,.105E-5,0
ONEWEB-0352,2021-083AG,2026-07-20T07:33:07.034400,13.13468924,.00023302,87.8983,313.6407,105.2122,254.9265,0,U,49216,999,23537,.79735001E-3,.304E-5,0
ONEWEB-0354,2021-083AH,2026-07-20T05:44:45.764448,13.20773695,.00021699,87.9197,267.8561,90.4578,269.6804,0,U,49217,999,24117,-.12215015E-2,-.484E-5,0
ONEWEB-0355,2021-083AJ,2026-07-20T08:15:44.452800,13.13468410,.00021632,87.8980,313.6355,99.4074,260.7299,0,U,49218,999,23525,-.89239389E-3,-.313E-5,0
ONEWEB-0357,2021-083AK,2026-07-20T05:39:54.466848,13.20771003,.00021955,87.9184,267.8472,99.8014,260.3368,0,U,49219,999,24117,-.48371501E-4,-.7E-7,0
ONEWEB-0332,2021-090A,2026-07-20T11:34:13.795104,13.14503501,.00020485,87.8963,283.0753,105.5111,254.6245,0,U,49279,999,23195,-.46419673E-3,-.159E-5,0
ONEWEB-0347,2021-090B,2026-07-20T05:25:22.078272,13.20770228,.00020573,87.9178,267.8569,105.4116,254.7244,0,U,49280,999,23540,.17301479E-3,.83E-6,0
ONEWEB-0349,2021-090C,2026-07-20T09:49:35.860512,13.20771691,.00020497,87.9181,267.8212,97.6567,262.4799,0,U,49281,999,23421,.10535952E-3,.56E-6,0
ONEWEB-0353,2021-090D,2026-07-20T05:53:59.481312,13.14502939,.00020352,87.8966,283.1184,107.0324,253.1029,0,U,49282,999,23192,-.10747935E-3,-.27E-6,0
ONEWEB-0356,2021-090E,2026-07-20T06:09:00.241056,13.20771463,.00012108,87.9178,267.8452,101.6061,258.5208,0,U,49283,999,23419,-.27899098E-3,-.1E-5,0
ONEWEB-0358,2021-090F,2026-07-20T05:12:00.974016,13.20770020,.00019461,87.9180,267.8606,95.5297,264.6058,0,U,49284,999,23491,.31781785E-3,.142E-5,0
ONEWEB-0359,2021-090G,2026-07-20T04:58:41.647008,13.20771163,.00020488,87.9176,267.8540,89.6785,270.4583,0,U,49285,999,23489,.1953302E-3,.92E-6,0
ONEWEB-0360,2021-090H,2026-07-20T04:44:10.215744,13.20772249,.0002184,87.9173,267.8619,97.6787,262.4594,0,U,49286,999,23420,.28135033E-3,.127E-5,0
ONEWEB-0361,2021-090J,2026-07-20T11:33:50.032512,13.20771390,.00019572,87.9180,267.8048,94.8284,265.3073,0,U,49287,999,23469,-.71441671E-3,-.277E-5,0
ONEWEB-0362,2021-090K,2026-07-20T12:52:42.302208,13.19731967,.00023814,87.9187,298.3379,99.8845,260.2557,0,U,49288,999,23131,-.36242676E-2,-.1438E-4,0
ONEWEB-0363,2021-090L,2026-07-20T04:39:18.194112,13.20772610,.00017249,87.9183,267.8624,96.6779,263.4550,0,U,49289,999,23466,.20320423E-3,.96E-6,0
ONEWEB-0364,2021-090M,2026-07-20T11:02:19.865760,13.20770825,.00021154,87.9176,267.8169,98.5350,261.6023,0,U,49290,999,23583,.15669827E-3,.77E-6,0
